NORAD_CAT_ID,OBJECT_NAME,OBJECT_TYPE,EPOCH,MEAN_MOTION,ECCENTRICITY,INCLINATION,RA_OF_ASC_NODE,ARG_OF_PERICENTER,MEAN_ANOMALY,BSTAR,MEAN_MOTION_DOT,MEAN_MOTION_DDOT,TLE_LINE0,TLE_LINE1,TLE_LINE2,SEMIMAJOR_AXIS,PERIOD,APOGEE,PERIGEE,DECAYED
53702.0,STARLINK-4724,PAYLOAD,2024-03-14 17:51:00,15.08840586,0.0001041,53.2126,243.4263,111.1849,248.9254,-0.00011794,-2.164e-05,0.0,0 STARLINK-4724,1 53702U 22107C   24074.74375992 -.00002164  00000-0 -11794-3 0  9992,2 53702  53.2126 243.4263 0001041 111.1849 248.9254 15.08840586 85656,6917.879,95.438,540.464,539.023,0.0
53702.0,STARLINK-4724,PAYLOAD,2024-03-15 20:52:34,15.08847917,0.0001129,53.2136,238.3714,108.5227,251.5888,-0.00014006,-2.517e-05,0.0,0 STARLINK-4724,1 53702U 22107C   24075.86984261 -.00002517  00000-0 -14006-3 0  9992,2 53702  53.2136 238.3714 0001129 108.5227 251.5888 15.08847917 85049,6917.856,95.437,540.502,538.94,0.0
53702.0,STARLINK-4724,PAYLOAD,2024-03-16 09:35:40,15.08826685,0.0001444,53.215,235.9921,116.5565,243.5575,0.00028217,4.204e-05,0.0,0 STARLINK-4724,1 53702U 22107C   24076.39977786  .00004204  00000-0  28217-3 0  9997,2 53702  53.2150 235.9921 0001444 116.5565 243.5575 15.08826685 85124,6917.921,95.438,540.785,538.787,0.0
53702.0,STARLINK-4724,PAYLOAD,2024-03-16 14:21:49,15.0883557,0.0001463,53.215,235.1023,101.815,258.3007,0.00010958,1.456e-05,0.0,0 STARLINK-4724,1 53702U 22107C   24076.59849322  .00001456  00000-0  10958-3 0  9992,2 53702  53.2150 235.1023 0001463 101.8150 258.3007 15.08835570 85933,6917.894,95.438,540.771,538.747,0.0
53702.0,STARLINK-4724,PAYLOAD,2024-03-16 17:32:36,15.08837197,0.0001463,53.2158,234.5084,91.542,268.574,9.7528e-05,1.264e-05,0.0,0 STARLINK-4724,1 53702U 22107C   24076.73097302  .00001264  00000-0  97528-4 0  9997,2 53702  53.2158 234.5084 0001463  91.5420 268.5740 15.08837197 85176,6917.889,95.438,540.766,538.742,0.0
53702.0,STARLINK-4724,PAYLOAD,2024-03-17 14:12:36,15.088374,0.0001481,53.216,230.6433,103.8371,256.2786,0.00015148,2.123e-05,0.0,0 STARLINK-4724,1 53702U 22107C   24077.59209327  .00002123  00000-0  15148-3 0  9996,2 53702  53.2160 230.6433 0001481 103.8371 256.2786 15.08837400 86088,6917.888,95.438,540.778,538.729,0.0
53702.0,STARLINK-4724,PAYLOAD,2024-03-17 15:47:59,15.0883846,0.0001484,53.2161,230.3461,103.6114,256.5044,0.00016334,2.312e-05,0.0,0 STARLINK-4724,1 53702U 22107C   24077.65833291  .00002312  00000-0  16334-3 0  9994,2 53702  53.2161 230.3461 0001484 103.6114 256.5044 15.08838460 86091,6917.885,95.438,540.777,538.723,0.0
53702.0,STARLINK-4724,PAYLOAD,2024-03-18 18:49:34,15.08831249,0.0001339,53.2148,225.2874,89.6642,270.4503,-1.0915e-05,-4.62e-06,0.0,0 STARLINK-4724,1 53702U 22107C   24078.78442317 -.00000462  00000-0 -10915-4 0  9990,2 53702  53.2148 225.2874 0001339  89.6642 270.4503 15.08831249 85480,6917.907,95.438,540.698,538.846,0.0
53702.0,STARLINK-4724,PAYLOAD,2024-03-19 13:54:13,15.08820491,0.0001336,53.2153,221.7181,64.051,296.062,-0.00018179,-3.178e-05,0.0,0 STARLINK-4724,1 53702U 22107C   24079.57931937 -.00003178  00000-0 -18179-3 0  9995,2 53702  53.2153 221.7181 0001336  64.0510 296.0620 15.08820491 85601,6917.94,95.439,540.729,538.881,0.0
53702.0,STARLINK-4724,PAYLOAD,2024-03-20 08:58:50,15.08843846,0.0001703,53.2149,218.1559,63.3951,296.7216,0.00048779,7.484e-05,0.0,0 STARLINK-4724,1 53702U 22107C   24080.37419019  .00007484  00000-0  48779-3 0  9998,2 53702  53.2149 218.1559 0001703  63.3951 296.7216 15.08843846 85724,6917.869,95.437,540.912,538.556,0.0
53702.0,STARLINK-4724,PAYLOAD,2024-03-20 13:44:59,15.08847962,0.0001457,53.2153,217.2642,69.0665,291.0483,0.00049128,7.541e-05,0.0,0 STARLINK-4724,1 53702U 22107C   24080.57290746  .00007541  00000-0  49128-3 0  9997,2 53702  53.2153 217.2642 0001457  69.0665 291.0483 15.08847962 86530,6917.856,95.437,540.729,538.713,0.0
53702.0,STARLINK-4724,PAYLOAD,2024-03-20 15:20:22,15.08849704,0.0001508,53.2155,216.9669,72.593,287.5227,0.00051481,7.917e-05,0.0,0 STARLINK-4724,1 53702U 22107C   24080.63914636  .00007917  00000-0  51481-3 0  9997,2 53702  53.2155 216.9669 0001508  72.5930 287.5227 15.08849704 86541,6917.851,95.437,540.759,538.673,0.0
53702.0,STARLINK-4724,PAYLOAD,2024-03-21 13:35:45,15.08854093,0.0001697,53.216,212.8007,75.3996,284.7185,-5.1933e-05,-1.115e-05,0.0,0 STARLINK-4724,1 53702U 22107C   24081.56650277 -.00001115  00000-0 -51933-4 0  9997,2 53702  53.2160 212.8007 0001697  75.3996 284.7185 15.08854093 85908,6917.837,95.437,540.876,538.528,0.0
53702.0,STARLINK-4724,PAYLOAD,2024-03-21 15:11:08,15.08855118,0.0001638,53.2158,212.502,78.9588,281.1588,-7.4317e-06,-4.06e-06,0.0,0 STARLINK-4724,1 53702U 22107C   24081.63274178 -.00000406  00000-0 -74317-5 0  9991,2 53702  53.2158 212.5020 0001638  78.9588 281.1588 15.08855118 86692,6917.834,95.437,540.832,538.566,0.0
53702.0,STARLINK-4724,PAYLOAD,2024-03-22 13:26:31,15.08859265,0.0001669,53.2171,208.341,86.8432,273.2751,0.00019616,2.837e-05,0.0,0 STARLINK-4724,1 53702U 22107C   24082.56009196  .00002837  00000-0  19616-3 0  9997,2 53702  53.2171 208.3410 0001669  86.8432 273.2751 15.08859265 86830,6917.822,95.436,540.841,538.532,0.0
53702.0,STARLINK-4724,PAYLOAD,2024-03-22 18:12:40,15.0886671,0.0001466,53.216,207.4444,89.7514,270.3647,0.00034323,5.183e-05,0.0,0 STARLINK-4724,1 53702U 22107C   24082.75880605  .00005183  00000-0  34323-3 0  9999,2 53702  53.2160 207.4444 0001466  89.7514 270.3647 15.08866710 86085,6917.799,95.436,540.678,538.65,0.0
53702.0,STARLINK-4724,PAYLOAD,2024-03-23 13:17:19,15.08830546,0.0001443,53.2171,203.8791,79.3427,280.7728,-0.00017478,-3.068e-05,0.0,0 STARLINK-4724,1 53702U 22107C   24083.55370250 -.00003068  00000-0 -17478-3 0  9992,2 53702  53.2171 203.8791 0001443  79.3427 280.7728 15.08830546 86202,6917.909,95.438,540.773,538.776,0.0
53702.0,STARLINK-4724,PAYLOAD,2024-03-23 14:52:42,15.08830272,0.0001589,53.2168,203.5809,96.1701,263.9473,-0.00017889,-3.133e-05,0.0,0 STARLINK-4724,1 53702U 22107C   24083.61994096 -.00003133  00000-0 -17889-3 0  9998,2 53702  53.2168 203.5809 0001589  96.1701 263.9473 15.08830272 86990,6917.91,95.438,540.874,538.676,0.0
53702.0,STARLINK-4724,PAYLOAD,2024-03-24 13:08:06,15.08877216,0.0001496,53.2173,199.4225,102.1109,258.0051,0.0018235,0.00028882,0.0,0 STARLINK-4724,1 53702U 22107C   24084.54729609  .00028882  00000-0  18235-2 0  9998,2 53702  53.2173 199.4225 0001496 102.1109 258.0051 15.08877216 86354,6917.767,95.435,540.667,538.597,0.0
53702.0,STARLINK-4724,PAYLOAD,2024-03-24 14:43:29,15.08887103,0.000158,53.2169,199.1248,105.4738,254.6428,0.0021971,0.00034898,0.0,0 STARLINK-4724,1 53702U 22107C   24084.61353343  .00034898  00000-0  21971-2 0  9999,2 53702  53.2169 199.1248 0001580 105.4738 254.6428 15.08887103 87143,6917.736,95.435,540.694,538.508,0.0
53702.0,STARLINK-4724,PAYLOAD,2024-03-25 00:15:47,15.08897644,0.0002258,53.2165,197.3339,60.0481,300.0735,0.0027727,0.00044187,0.0,0 STARLINK-4724,1 53702U 22107C   24085.01096852  .00044187  00000-0  27727-2 0  9990,2 53702  53.2165 197.3339 0002258  60.0481 300.0735 15.08897644 86422,6917.704,95.434,541.131,538.007,0.0
53702.0,STARLINK-4724,PAYLOAD,2024-03-25 12:58:52,15.08874052,0.000158,53.2169,194.9624,103.7024,256.4144,0.001256,0.00019776,0.0,0 STARLINK-4724,1 53702U 22107C   24085.54088941  .00019776  00000-0  12560-2 0  9993,2 53702  53.2169 194.9624 0001580 103.7024 256.4144 15.08874052 86506,6917.776,95.435,540.734,538.548,0.0
53702.0,STARLINK-4724,PAYLOAD,2024-03-25 14:34:16,15.08845174,0.0001862,53.2167,194.6657,89.1164,271.0042,0.0022253,0.00035311,0.0,0 STARLINK-4724,1 53702U 22107C   24085.60713328  .00035311  00000-0  22253-2 0  9997,2 53702  53.2167 194.6657 0001862  89.1164 271.0042 15.08845174 86516,6917.865,95.437,541.018,538.441,0.0
53702.0,STARLINK-4724,PAYLOAD,2024-03-26 12:49:42,15.08806155,0.0001662,53.216,190.4971,83.4699,276.6482,0.0011433,0.00017938,0.0,0 STARLINK-4724,1 53702U 22107C   24086.53452141  .00017938  00000-0  11433-2 0  9996,2 53702  53.2160 190.4971 0001662  83.4699 276.6482 15.08806155 86650,6917.984,95.44,540.999,538.699,0.0
53702.0,STARLINK-4724,PAYLOAD,2024-03-26 14:25:06,15.08801208,0.0002016,53.2163,190.2011,67.561,292.5596,0.0008584,0.00013385,0.0,0 STARLINK-4724,1 53702U 22107C   24086.60076525  .00013385  00000-0  85840-3 0  9998,2 53702  53.2163 190.2011 0002016  67.5610 292.5596 15.08801208 87441,6917.999,95.44,541.259,538.469,0.0
53702.0,STARLINK-4724,PAYLOAD,2024-03-26 16:00:29,15.08811184,0.0001918,53.2168,189.9063,77.8502,282.2705,0.00069374,0.00010761,0.0,0 STARLINK-4724,1 53702U 22107C   24086.66700479  .00010761  00000-0  69374-3 0  9995,2 53702  53.2168 189.9063 0001918  77.8502 282.2705 15.08811184 87455,6917.968,95.439,541.16,538.507,0.0
53702.0,STARLINK-4724,PAYLOAD,2024-03-27 12:40:29,15.08878627,0.0001692,53.2155,186.0405,80.2019,279.9165,0.0019406,0.00030765,0.0,0 STARLINK-4724,1 53702U 22107C   24087.52811691  .00030765  00000-0  19406-2 0  9996,2 53702  53.2155 186.0405 0001692  80.2019 279.9165 15.08878627 86805,6917.762,95.435,540.798,538.457,0.0
53702.0,STARLINK-4724,PAYLOAD,2024-03-27 14:15:52,15.08888695,0.0001694,53.2155,185.7416,83.4285,276.69,0.0023353,0.00037124,0.0,0 STARLINK-4724,1 53702U 22107C   24087.59435463  .00037124  00000-0  23353-2 0  9994,2 53702  53.2155 185.7416 0001694  83.4285 276.6900 15.08888695 87599,6917.732,95.434,540.768,538.425,0.0
53702.0,STARLINK-4724,PAYLOAD,2024-03-27 23:48:10,15.08878581,0.0001957,53.2155,183.9587,77.9796,282.1415,0.0008306,0.0001297,0.0,0 STARLINK-4724,1 53702U 22107C   24087.99178998  .00012970  00000-0  83060-3 0  9999,2 53702  53.2155 183.9587 0001957  77.9796 282.1415 15.08878581 86871,6917.762,95.435,540.981,538.274,0.0
53702.0,STARLINK-4724,PAYLOAD,2024-03-28 12:31:15,15.08859074,0.0001428,53.2152,181.5782,90.906,269.2096,0.0016823,0.00026601,0.0,0 STARLINK-4724,1 53702U 22107C   24088.52170714  .00026601  00000-0  16823-2 0  9995,2 53702  53.2152 181.5782 0001428  90.9060 269.2096 15.08859074 86957,6917.822,95.436,540.675,538.699,0.0
